CCSDS_OMM_VERS = 2.0
CREATION_DATE  = 
ORIGINATOR     = 

OBJECT_NAME    = STARLINK-36390
OBJECT_ID      = 2026-035H
CENTER_NAME    = EARTH
REF_FRAME      = TEME
TIME_SYSTEM    = UTC
MEAN_ELEMENT_THEORY = SGP/SGP4

EPOCH          = 2026-03-20T13:17:41.701632
MEAN_MOTION    = 15.75278062
ECCENTRICITY   = .000229
INCLINATION    = 97.2869
RA_OF_ASC_NODE = 12.4843
ARG_OF_PERICENTER = 81.5639
MEAN_ANOMALY   = 278.5886

EPHEMERIS_TYPE = 0
CLASSIFICATION_TYPE = U
NORAD_CAT_ID   = 67886
ELEMENT_SET_NO = 999
REV_AT_EPOCH   = 555
BSTAR          = .18178E-2
MEAN_MOTION_DOT = .281205E-2
MEAN_MOTION_DDOT = 0

CCSDS_OMM_VERS = 2.0
CREATION_DATE  = 
ORIGINATOR     = 

OBJECT_NAME    = STARLINK-36368
OBJECT_ID      = 2026-035J
CENTER_NAME    = EARTH
REF_FRAME      = TEME
TIME_SYSTEM    = UTC
MEAN_ELEMENT_THEORY = SGP/SGP4

EPOCH          = 2026-03-20T12:47:56.323392
MEAN_MOTION    = 15.80927912
ECCENTRICITY   = .00029894
INCLINATION    = 97.2893
RA_OF_ASC_NODE = 12.5105
ARG_OF_PERICENTER = 62.2004
MEAN_ANOMALY   = 297.9567

EPHEMERIS_TYPE = 0
CLASSIFICATION_TYPE = U
NORAD_CAT_ID   = 67887
ELEMENT_SET_NO = 999
REV_AT_EPOCH   = 555
BSTAR          = .17053263E-2
MEAN_MOTION_DOT = .341378E-2
MEAN_MOTION_DDOT = 0

CCSDS_OMM_VERS = 2.0
CREATION_DATE  = 
ORIGINATOR     = 

OBJECT_NAME    = STARLINK-36801
OBJECT_ID      = 2026-035K
CENTER_NAME    = EARTH
REF_FRAME      = TEME
TIME_SYSTEM    = UTC
MEAN_ELEMENT_THEORY = SGP/SGP4

EPOCH          = 2026-03-20T20:00:01.999008
MEAN_MOTION    = 15.75248926
ECCENTRICITY   = .0001608
INCLINATION    = 97.2857
RA_OF_ASC_NODE = 12.8274
ARG_OF_PERICENTER = 105.7869
MEAN_ANOMALY   = 153.6558

EPHEMERIS_TYPE = 0
CLASSIFICATION_TYPE = U
NORAD_CAT_ID   = 67888
ELEMENT_SET_NO = 999
REV_AT_EPOCH   = 555
BSTAR          = -.1091E-2
MEAN_MOTION_DOT = -.160268E-2
MEAN_MOTION_DDOT = 0

CCSDS_OMM_VERS = 2.0
CREATION_DATE  = 
ORIGINATOR     = 

OBJECT_NAME    = STARLINK-36372
OBJECT_ID      = 2026-035L
CENTER_NAME    = EARTH
REF_FRAME      = TEME
TIME_SYSTEM    = UTC
MEAN_ELEMENT_THEORY = SGP/SGP4

EPOCH          = 2026-03-20T20:00:01.999008
MEAN_MOTION    = 15.75259679
ECCENTRICITY   = .0001583
INCLINATION    = 97.2869
RA_OF_ASC_NODE = 12.8192
ARG_OF_PERICENTER = 105.4154
MEAN_ANOMALY   = 134.0735

EPHEMERIS_TYPE = 0
CLASSIFICATION_TYPE = U
NORAD_CAT_ID   = 67889
ELEMENT_SET_NO = 999
REV_AT_EPOCH   = 555
BSTAR          = -.10839E-2
MEAN_MOTION_DOT = -.159313E-2
MEAN_MOTION_DDOT = 0

CCSDS_OMM_VERS = 2.0
CREATION_DATE  = 
ORIGINATOR     = 

OBJECT_NAME    = STARLINK-36363
OBJECT_ID      = 2026-035M
CENTER_NAME    = EARTH
REF_FRAME      = TEME
TIME_SYSTEM    = UTC
MEAN_ELEMENT_THEORY = SGP/SGP4

EPOCH          = 2026-03-20T13:12:36.625824
MEAN_MOTION    = 15.75250962
ECCENTRICITY   = .0001634
INCLINATION    = 97.2879
RA_OF_ASC_NODE = 12.4895
ARG_OF_PERICENTER = 81.6761
MEAN_ANOMALY   = 278.4690

EPHEMERIS_TYPE = 0
CLASSIFICATION_TYPE = U
NORAD_CAT_ID   = 67890
ELEMENT_SET_NO = 999
REV_AT_EPOCH   = 555
BSTAR          = .14011E-2
MEAN_MOTION_DOT = .214759E-2
MEAN_MOTION_DDOT = 0

CCSDS_OMM_VERS = 2.0
CREATION_DATE  = 
ORIGINATOR     = 

OBJECT_NAME    = STARLINK-36816
OBJECT_ID      = 2026-035N
CENTER_NAME    = EARTH
REF_FRAME      = TEME
TIME_SYSTEM    = UTC
MEAN_ELEMENT_THEORY = SGP/SGP4

EPOCH          = 2026-03-20T14:01:45.836256
MEAN_MOTION    = 15.80942298
ECCENTRICITY   = .0001582
INCLINATION    = 97.2891
RA_OF_ASC_NODE = 12.5901
ARG_OF_PERICENTER = 115.5265
MEAN_ANOMALY   = 244.6167

EPHEMERIS_TYPE = 0
CLASSIFICATION_TYPE = U
NORAD_CAT_ID   = 67891
ELEMENT_SET_NO = 999
REV_AT_EPOCH   = 556
BSTAR          = .18188E-2
MEAN_MOTION_DOT = .365331E-2
MEAN_MOTION_DDOT = 0

CCSDS_OMM_VERS = 2.0
CREATION_DATE  = 
ORIGINATOR     = 

OBJECT_NAME    = STARLINK-36813
OBJECT_ID      = 2026-035P
CENTER_NAME    = EARTH
REF_FRAME      = TEME
TIME_SYSTEM    = UTC
MEAN_ELEMENT_THEORY = SGP/SGP4

EPOCH          = 2026-03-20T08:03:38.777472
MEAN_MOTION    = 15.80832092
ECCENTRICITY   = .00018067
INCLINATION    = 97.2893
RA_OF_ASC_NODE = 12.3140
ARG_OF_PERICENTER = 94.6100
MEAN_ANOMALY   = 265.5375

EPHEMERIS_TYPE = 0
CLASSIFICATION_TYPE = U
NORAD_CAT_ID   = 67892
ELEMENT_SET_NO = 999
REV_AT_EPOCH   = 552
BSTAR          = .13775205E-2
MEAN_MOTION_DOT = .272326E-2
MEAN_MOTION_DDOT = 0

CCSDS_OMM_VERS = 2.0
CREATION_DATE  = 
ORIGINATOR     = 

OBJECT_NAME    = STARLINK-36803
OBJECT_ID      = 2026-035Q
CENTER_NAME    = EARTH
REF_FRAME      = TEME
TIME_SYSTEM    = UTC
MEAN_ELEMENT_THEORY = SGP/SGP4

EPOCH          = 2026-03-20T18:48:12.316896
MEAN_MOTION    = 15.80964437
ECCENTRICITY   = .000216
INCLINATION    = 97.2889
RA_OF_ASC_NODE = 12.7808
ARG_OF_PERICENTER = 95.2426
MEAN_ANOMALY   = 264.9089

EPHEMERIS_TYPE = 0
CLASSIFICATION_TYPE = U
NORAD_CAT_ID   = 67893
ELEMENT_SET_NO = 999
REV_AT_EPOCH   = 559
BSTAR          = .18332E-2
MEAN_MOTION_DOT = .368753E-2
MEAN_MOTION_DDOT = 0

CCSDS_OMM_VERS = 2.0
CREATION_DATE  = 
ORIGINATOR     = 

OBJECT_NAME    = STARLINK-36846
OBJECT_ID      = 2026-035R
CENTER_NAME    = EARTH
REF_FRAME      = TEME
TIME_SYSTEM    = UTC
MEAN_ELEMENT_THEORY = SGP/SGP4

EPOCH          = 2026-03-20T17:49:35.061024
MEAN_MOTION    = 15.75343200
ECCENTRICITY   = .00038
INCLINATION    = 97.2886
RA_OF_ASC_NODE = 12.6844
ARG_OF_PERICENTER = 83.0005
MEAN_ANOMALY   = 277.1692

EPHEMERIS_TYPE = 0
CLASSIFICATION_TYPE = U
NORAD_CAT_ID   = 67894
ELEMENT_SET_NO = 999
REV_AT_EPOCH   = 558
BSTAR          = .19503E-2
MEAN_MOTION_DOT = .303401E-2
MEAN_MOTION_DDOT = 0

CCSDS_OMM_VERS = 2.0
CREATION_DATE  = 
ORIGINATOR     = 

OBJECT_NAME    = STARLINK-36866
OBJECT_ID      = 2026-035S
CENTER_NAME    = EARTH
REF_FRAME      = TEME
TIME_SYSTEM    = UTC
MEAN_ELEMENT_THEORY = SGP/SGP4

EPOCH          = 2026-03-20T08:29:32.168256
MEAN_MOTION    = 15.75188628
ECCENTRICITY   = .00025072
INCLINATION    = 97.2875
RA_OF_ASC_NODE = 12.2934
ARG_OF_PERICENTER = 100.4227
MEAN_ANOMALY   = 259.7321

EPHEMERIS_TYPE = 0
CLASSIFICATION_TYPE = U
NORAD_CAT_ID   = 67895
ELEMENT_SET_NO = 999
REV_AT_EPOCH   = 552
BSTAR          = .12794846E-2
MEAN_MOTION_DOT = .195138E-2
MEAN_MOTION_DDOT = 0

CCSDS_OMM_VERS = 2.0
CREATION_DATE  = 
ORIGINATOR     = 

OBJECT_NAME    = STARLINK-36877
OBJECT_ID      = 2026-035T
CENTER_NAME    = EARTH
REF_FRAME      = TEME
TIME_SYSTEM    = UTC
MEAN_ELEMENT_THEORY = SGP/SGP4

EPOCH          = 2026-03-20T08:09:03.248352
MEAN_MOTION    = 15.80812527
ECCENTRICITY   = .00012609
INCLINATION    = 97.2894
RA_OF_ASC_NODE = 12.3125
ARG_OF_PERICENTER = 91.2304
MEAN_ANOMALY   = 268.9109

EPHEMERIS_TYPE = 0
CLASSIFICATION_TYPE = U
NORAD_CAT_ID   = 67896
ELEMENT_SET_NO = 999
REV_AT_EPOCH   = 552
BSTAR          = .14951121E-2
MEAN_MOTION_DOT = .296137E-2
MEAN_MOTION_DDOT = 0

CCSDS_OMM_VERS = 2.0
CREATION_DATE  = 
ORIGINATOR     = 

OBJECT_NAME    = STARLINK-36870
OBJECT_ID      = 2026-035U
CENTER_NAME    = EARTH
REF_FRAME      = TEME
TIME_SYSTEM    = UTC
MEAN_ELEMENT_THEORY = SGP/SGP4

EPOCH          = 2026-03-20T20:15:35.005824
MEAN_MOTION    = 15.78835708
ECCENTRICITY   = .0000873
INCLINATION    = 97.2888
RA_OF_ASC_NODE = 12.8503
ARG_OF_PERICENTER = 157.4722
MEAN_ANOMALY   = 202.6583

EPHEMERIS_TYPE = 0
CLASSIFICATION_TYPE = U
NORAD_CAT_ID   = 67897
ELEMENT_SET_NO = 999
REV_AT_EPOCH   = 560
BSTAR          = -.53181E-2
MEAN_MOTION_DOT = -.845379E-2
MEAN_MOTION_DDOT = 0

